[{"OBJECT_NAME":"STARLINK-3058","OBJECT_ID":"2021-082J","EPOCH":"2026-03-09T21:56:31.840224","MEAN_MOTION":14.98327791,"ECCENTRICITY":0.00020205,"INCLINATION":69.9986,"RA_OF_ASC_NODE":293.8975,"ARG_OF_PERICENTER":250.3449,"MEAN_ANOMALY":109.7493,"EPHEMERIS_TYPE":0,"CLASSIFICATION_TYPE":"U","NORAD_CAT_ID":49138,"ELEMENT_SET_NO":999,"REV_AT_EPOCH":24601,"BSTAR":5.8290098e-5,"MEAN_MOTION_DOT":6.03e-6,"MEAN_MOTION_DDOT":0},{"OBJECT_NAME":"CZ-4B DEB","OBJECT_ID":"2017-034F","EPOCH":"2026-03-09T21:40:50.869920","MEAN_MOTION":14.94203356,"ECCENTRICITY":0.01269894,"INCLINATION":42.9918,"RA_OF_ASC_NODE":268.1665,"ARG_OF_PERICENTER":296.9238,"MEAN_ANOMALY":61.8675,"EPHEMERIS_TYPE":0,"CLASSIFICATION_TYPE":"U","NORAD_CAT_ID":43430,"ELEMENT_SET_NO":999,"REV_AT_EPOCH":46152,"BSTAR":0.00088597773,"MEAN_MOTION_DOT":0.00011118,"MEAN_MOTION_DDOT":0}]
